{
  "norad_id": 65773,
  "name": "KUIPER-00153",
  "history": [
    {
      "epoch": "2026-03-28T22:00:01.999584Z",
      "apogee_km": 625.3892043457618,
      "perigee_km": 608.6136033284474,
      "latitude_deg": -51.713236949296046,
      "longitude_deg": 44.57353719171879,
      "height_km": 636.9419422027903,
      "semi_major_axis_km": 6995.138403837104,
      "eccentricity": 0.00119909,
      "inclination_deg": 51.8986,
      "raan_deg": 299.8032,
      "arg_perigee_deg": 9.2241,
      "mean_anomaly_deg": 255.3828,
      "mean_motion_rev_day": 14.83912504
    },
    {
      "epoch": "2026-03-29T04:00:01.999584Z",
      "apogee_km": 625.0530073964173,
      "perigee_km": 608.948800913472,
      "latitude_deg": 14.84916698609878,
      "longitude_deg": -139.83087633772627,
      "height_km": 624.0820861107268,
      "semi_major_axis_km": 6995.137904154944,
      "eccentricity": 0.0011511,
      "inclination_deg": 51.8995,
      "raan_deg": 298.6869,
      "arg_perigee_deg": 9.8895,
      "mean_anomaly_deg": 151.0596,
      "mean_motion_rev_day": 14.83912663
    },
    {
      "epoch": "2026-03-30T04:00:01.999584Z",
      "apogee_km": 625.4236169706228,
      "perigee_km": 615.9304256321293,
      "latitude_deg": 49.87767155145671,
      "longitude_deg": 158.94279948693324,
      "height_km": 625.8879281013487,
      "semi_major_axis_km": 6998.814021301376,
      "eccentricity": 0.0006782,
      "inclination_deg": 51.8991,
      "raan_deg": 294.2412,
      "arg_perigee_deg": 19.7956,
      "mean_anomaly_deg": 84.2939,
      "mean_motion_rev_day": 14.82743682
    }
  ]
}